STARLINK-31667          
1 59609U 24080J   26040.74293239  .00000492  00000+0  27414-4 0  9990
2 59609  43.0013 191.8329 0001386 270.5907  89.4786 15.27579134100303
STARLINK-31729          
1 59610U 24080K   26040.72894348 -.00000101  00000+0  58441-5 0  9991
2 59610  43.0009 192.5949 0000809 253.4860 106.5902 15.27581549100295
STARLINK-31448          
1 59611U 24080L   26040.71352322  .00001195  00000+0  52940-4 0  9992
2 59611  43.0009 192.4775 0001449 300.7150  59.3558 15.27583845100294
STARLINK-31748          
1 59612U 24080M   26040.43270025  .00002451  00000+0  98553-4 0  9997
2 59612  43.0008 193.8082 0002653 279.8657  80.1895 15.27590328101422
STARLINK-31746          
1 59613U 24080N   26040.87930044  .00001863  00000+0  77205-4 0  9997
2 59613  42.9990 198.8980 0000952   0.0343   0.0508 15.27582676100236
STARLINK-31762          
1 59614U 24080P   26040.91691247  .00000403  00000+0  24155-4 0  9997
2 59614  42.9966 194.8795 0000864 227.9193 132.1585 15.27590968100285
STARLINK-31761          
1 59615U 24080Q   26041.16668981  .00160618  00000+0  34895-2 0  9990
2 59615  42.9970 190.7944 0014800 326.0997 343.6337 15.42928425  5918
STARLINK-31768          
1 59616U 24080R   26040.91433990 -.00000048  00000+0  77647-5 0  9999
2 59616  42.9978 194.8620 0000967 267.6464  92.4277 15.27586082100281
STARLINK-31769          
1 59617U 24080S   26040.73617919  .00003878  00000+0  15038-3 0  9992
2 59617  43.0010 196.1067 0001056 274.9936  85.0795 15.27574265100256
STARLINK-31784          
1 59618U 24080T   26040.47285813  .00000687  00000+0  34492-4 0  9999
2 59618  42.9989 201.0255 0001062 255.2251 104.8483 15.27580005100178
STARLINK-31777          
1 59619U 24080U   26040.73826256 -.00000027  00000+0  85339-5 0  9997
2 59619  42.9994 199.5816 0001222 294.5956  65.4768 15.27576718100214
STARLINK-31758          
1 59621U 24080W   26040.87884495  .00000661  00000+0  33546-4 0  9999
2 59621  43.0011 191.1361 0001460 275.7056  84.3629 15.27580158100329
STARLINK-31774          
1 59622U 24080X   26040.85073193 -.00000550  00000+0 -10463-4 0  9995
2 59622  42.9981 191.7811 0000765 217.1424 142.9375 15.27570490100312
STARLINK-31763          
1 59623U 24080Y   26040.47847828  .00000263  00000+0  19080-4 0  9991
2 59623  42.9951 197.6069 0000951 164.7933 195.2948 15.27585772100214
STARLINK-31749          
1 59631U 24082A   26041.08237160  .00000133  00000+0  14376-4 0  9991
2 59631  43.0019 295.3916 0001261 271.5785  88.4922 15.27573030100796
STARLINK-31781          
1 59632U 24082B   26041.04584074  .00000357  00000+0  22507-4 0  9990
2 59632  43.0013 281.8166 0001844 256.0695 103.9951 15.27579098100787
STARLINK-31541          
1 59633U 24082C   26040.96284779  .00002307  00000+0  93329-4 0  9997
2 59633  42.9976 289.2799 0001419   7.5434 352.5439 15.27575237100847
