[{"OBJECT_NAME":"STARLINK-31667","OBJECT_ID":"2024-080J","EPOCH":"2026-02-09T17:49:49.358496","MEAN_MOTION":15.27579134,"ECCENTRICITY":0.00013868,"INCLINATION":43.0013,"RA_OF_ASC_NODE":191.8329,"ARG_OF_PERICENTER":270.5907,"MEAN_ANOMALY":89.4786,"EPHEMERIS_TYPE":0,"CLASSIFICATION_TYPE":"U","NORAD_CAT_ID":59609,"ELEMENT_SET_NO":999,"REV_AT_EPOCH":10030,"BSTAR":2.7414234e-5,"MEAN_MOTION_DOT":4.92e-6,"MEAN_MOTION_DDOT":0},{"OBJECT_NAME":"STARLINK-31729","OBJECT_ID":"2024-080K","EPOCH":"2026-02-09T17:29:40.716672","MEAN_MOTION":15.27581549,"ECCENTRICITY":8.096e-5,"INCLINATION":43.0009,"RA_OF_ASC_NODE":192.5949,"ARG_OF_PERICENTER":253.486,"MEAN_ANOMALY":106.5902,"EPHEMERIS_TYPE":0,"CLASSIFICATION_TYPE":"U","NORAD_CAT_ID":59610,"ELEMENT_SET_NO":999,"REV_AT_EPOCH":10029,"BSTAR":5.84407e-6,"MEAN_MOTION_DOT":-1.01e-6,"MEAN_MOTION_DDOT":0},{"OBJECT_NAME":"STARLINK-31448","OBJECT_ID":"2024-080L","EPOCH":"2026-02-09T17:07:28.406208","MEAN_MOTION":15.27583845,"ECCENTRICITY":0.00014499,"INCLINATION":43.0009,"RA_OF_ASC_NODE":192.4775,"ARG_OF_PERICENTER":300.715,"MEAN_ANOMALY":59.3558,"EPHEMERIS_TYPE":0,"CLASSIFICATION_TYPE":"U","NORAD_CAT_ID":59611,"ELEMENT_SET_NO":999,"REV_AT_EPOCH":10029,"BSTAR":5.2940429e-5,"MEAN_MOTION_DOT":1.195e-5,"MEAN_MOTION_DDOT":0},{"OBJECT_NAME":"STARLINK-31748","OBJECT_ID":"2024-080M","EPOCH":"2026-02-09T10:23:05.301600","MEAN_MOTION":15.27590328,"ECCENTRICITY":0.00026535,"INCLINATION":43.0008,"RA_OF_ASC_NODE":193.8082,"ARG_OF_PERICENTER":279.8657,"MEAN_ANOMALY":80.1895,"EPHEMERIS_TYPE":0,"CLASSIFICATION_TYPE":"U","NORAD_CAT_ID":59612,"ELEMENT_SET_NO":999,"REV_AT_EPOCH":10142,"BSTAR":9.8552566e-5,"MEAN_MOTION_DOT":2.451e-5,"MEAN_MOTION_DDOT":0},{"OBJECT_NAME":"STARLINK-31746","OBJECT_ID":"2024-080N","EPOCH":"2026-02-09T21:06:11.558016","MEAN_MOTION":15.27582676,"ECCENTRICITY":9.52e-5,"INCLINATION":42.999,"RA_OF_ASC_NODE":198.898,"ARG_OF_PERICENTER":0.0343,"MEAN_ANOMALY":0.0508,"EPHEMERIS_TYPE":0,"CLASSIFICATION_TYPE":"U","NORAD_CAT_ID":59613,"ELEMENT_SET_NO":999,"REV_AT_EPOCH":10023,"BSTAR":7.7205e-5,"MEAN_MOTION_DOT":1.863e-5,"MEAN_MOTION_DDOT":0},{"OBJECT_NAME":"STARLINK-31762","OBJECT_ID":"2024-080P","EPOCH":"2026-02-09T22:00:21.237408","MEAN_MOTION":15.27590968,"ECCENTRICITY":8.64e-5,"INCLINATION":42.9966,"RA_OF_ASC_NODE":194.8795,"ARG_OF_PERICENTER":227.9193,"MEAN_ANOMALY":132.1585,"EPHEMERIS_TYPE":0,"CLASSIFICATION_TYPE":"U","NORAD_CAT_ID":59614,"ELEMENT_SET_NO":999,"REV_AT_EPOCH":10028,"BSTAR":2.4155e-5,"MEAN_MOTION_DOT":4.03e-6,"MEAN_MOTION_DDOT":0},{"OBJECT_NAME":"STARLINK-31761","OBJECT_ID":"2024-080Q","EPOCH":"2026-02-10T04:00:01.999584","MEAN_MOTION":15.42928425,"ECCENTRICITY":0.00148,"INCLINATION":42.997,"RA_OF_ASC_NODE":190.7944,"ARG_OF_PERICENTER":326.0997,"MEAN_ANOMALY":343.6337,"EPHEMERIS_TYPE":0,"CLASSIFICATION_TYPE":"U","NORAD_CAT_ID":59615,"ELEMENT_SET_NO":999,"REV_AT_EPOCH":591,"BSTAR":0.0034895,"MEAN_MOTION_DOT":0.00160618,"MEAN_MOTION_DDOT":0},{"OBJECT_NAME":"STARLINK-31768","OBJECT_ID":"2024-080R","EPOCH":"2026-02-09T21:56:38.967360","MEAN_MOTION":15.27586082,"ECCENTRICITY":9.67e-5,"INCLINATION":42.9978,"RA_OF_ASC_NODE":194.862,"ARG_OF_PERICENTER":267.6464,"MEAN_ANOMALY":92.4277,"EPHEMERIS_TYPE":0,"CLASSIFICATION_TYPE":"U","NORAD_CAT_ID":59616,"ELEMENT_SET_NO":999,"REV_AT_EPOCH":10028,"BSTAR":7.7647e-6,"MEAN_MOTION_DOT":-4.8e-7,"MEAN_MOTION_DDOT":0},{"OBJECT_NAME":"STARLINK-31769","OBJECT_ID":"2024-080S","EPOCH":"2026-02-09T17:40:05.882016","MEAN_MOTION":15.27574265,"ECCENTRICITY":0.00010568,"INCLINATION":43.001,"RA_OF_ASC_NODE":196.1067,"ARG_OF_PERICENTER":274.9936,"MEAN_ANOMALY":85.0795,"EPHEMERIS_TYPE":0,"CLASSIFICATION_TYPE":"U","NORAD_CAT_ID":59617,"ELEMENT_SET_NO":999,"REV_AT_EPOCH":10025,"BSTAR":0.00015038039,"MEAN_MOTION_DOT":3.878e-5,"MEAN_MOTION_DDOT":0},{"OBJECT_NAME":"STARLINK-31784","OBJECT_ID":"2024-080T","EPOCH":"2026-02-09T11:20:54.942432","MEAN_MOTION":15.27580005,"ECCENTRICITY":0.00010621,"INCLINATION":42.9989,"RA_OF_ASC_NODE":201.0255,"ARG_OF_PERICENTER":255.2251,"MEAN_ANOMALY":104.8483,"EPHEMERIS_TYPE":0,"CLASSIFICATION_TYPE":"U","NORAD_CAT_ID":59618,"ELEMENT_SET_NO":999,"REV_AT_EPOCH":10017,"BSTAR":3.4491814e-5,"MEAN_MOTION_DOT":6.87e-6,"MEAN_MOTION_DDOT":0},{"OBJECT_NAME":"STARLINK-31777","OBJECT_ID":"2024-080U","EPOCH":"2026-02-09T17:43:05.885184","MEAN_MOTION":15.27576718,"ECCENTRICITY":0.00012224,"INCLINATION":42.9994,"RA_OF_ASC_NODE":199.5816,"ARG_OF_PERICENTER":294.5956,"MEAN_ANOMALY":65.4768,"EPHEMERIS_TYPE":0,"CLASSIFICATION_TYPE":"U","NORAD_CAT_ID":59619,"ELEMENT_SET_NO":999,"REV_AT_EPOCH":10021,"BSTAR":8.533871e-6,"MEAN_MOTION_DOT":-2.7e-7,"MEAN_MOTION_DDOT":0},{"OBJECT_NAME":"STARLINK-31758","OBJECT_ID":"2024-080W","EPOCH":"2026-02-09T21:05:32.203680","MEAN_MOTION":15.27580158,"ECCENTRICITY":0.000146,"INCLINATION":43.0011,"RA_OF_ASC_NODE":191.1361,"ARG_OF_PERICENTER":275.7056,"MEAN_ANOMALY":84.3629,"EPHEMERIS_TYPE":0,"CLASSIFICATION_TYPE":"U","NORAD_CAT_ID":59621,"ELEMENT_SET_NO":999,"REV_AT_EPOCH":10032,"BSTAR":3.3546e-5,"MEAN_MOTION_DOT":6.61e-6,"MEAN_MOTION_DDOT":0},{"OBJECT_NAME":"STARLINK-31774","OBJECT_ID":"2024-080X","EPOCH":"2026-02-09T20:25:03.238752","MEAN_MOTION":15.2757049,"ECCENTRICITY":7.65e-5,"INCLINATION":42.9981,"RA_OF_ASC_NODE":191.7811,"ARG_OF_PERICENTER":217.1424,"MEAN_ANOMALY":142.9375,"EPHEMERIS_TYPE":0,"CLASSIFICATION_TYPE":"U","NORAD_CAT_ID":59622,"ELEMENT_SET_NO":999,"REV_AT_EPOCH":10031,"BSTAR":-1.0463e-5,"MEAN_MOTION_DOT":-5.5e-6,"MEAN_MOTION_DDOT":0},{"OBJECT_NAME":"STARLINK-31763","OBJECT_ID":"2024-080Y","EPOCH":"2026-02-09T11:29:00.523392","MEAN_MOTION":15.27585772,"ECCENTRICITY":9.518e-5,"INCLINATION":42.9951,"RA_OF_ASC_NODE":197.6069,"ARG_OF_PERICENTER":164.7933,"MEAN_ANOMALY":195.2948,"EPHEMERIS_TYPE":0,"CLASSIFICATION_TYPE":"U","NORAD_CAT_ID":59623,"ELEMENT_SET_NO":999,"REV_AT_EPOCH":10021,"BSTAR":1.9079867e-5,"MEAN_MOTION_DOT":2.63e-6,"MEAN_MOTION_DDOT":0},{"OBJECT_NAME":"STARLINK-31749","OBJECT_ID":"2024-082A","EPOCH":"2026-02-10T01:58:36.906240","MEAN_MOTION":15.2757303,"ECCENTRICITY":0.0001261,"INCLINATION":43.0019,"RA_OF_ASC_NODE":295.3916,"ARG_OF_PERICENTER":271.5785,"MEAN_ANOMALY":88.4922,"EPHEMERIS_TYPE":0,"CLASSIFICATION_TYPE":"U","NORAD_CAT_ID":59631,"ELEMENT_SET_NO":999,"REV_AT_EPOCH":10079,"BSTAR":1.4376e-5,"MEAN_MOTION_DOT":1.33e-6,"MEAN_MOTION_DDOT":0},{"OBJECT_NAME":"STARLINK-31781","OBJECT_ID":"2024-082B","EPOCH":"2026-02-10T01:06:00.639936","MEAN_MOTION":15.27579098,"ECCENTRICITY":0.0001844,"INCLINATION":43.0013,"RA_OF_ASC_NODE":281.8166,"ARG_OF_PERICENTER":256.0695,"MEAN_ANOMALY":103.9951,"EPHEMERIS_TYPE":0,"CLASSIFICATION_TYPE":"U","NORAD_CAT_ID":59632,"ELEMENT_SET_NO":999,"REV_AT_EPOCH":10078,"BSTAR":2.2507e-5,"MEAN_MOTION_DOT":3.57e-6,"MEAN_MOTION_DDOT":0},{"OBJECT_NAME":"STARLINK-31541","OBJECT_ID":"2024-082C","EPOCH":"2026-02-09T23:06:30.049056","MEAN_MOTION":15.27575237,"ECCENTRICITY":0.0001419,"INCLINATION":42.9976,"RA_OF_ASC_NODE":289.2799,"ARG_OF_PERICENTER":7.5434,"MEAN_ANOMALY":352.5439,"EPHEMERIS_TYPE":0,"CLASSIFICATION_TYPE":"U","NORAD_CAT_ID":59633,"ELEMENT_SET_NO":999,"REV_AT_EPOCH":10084,"BSTAR":9.3329e-5,"MEAN_MOTION_DOT":2.307e-5,"MEAN_MOTION_DDOT":0}]
